NORAD_CAT_ID,OBJECT_NAME,OBJECT_TYPE,EPOCH,MEAN_MOTION,ECCENTRICITY,INCLINATION,RA_OF_ASC_NODE,ARG_OF_PERICENTER,MEAN_ANOMALY,BSTAR,MEAN_MOTION_DOT,MEAN_MOTION_DDOT,TLE_LINE0,TLE_LINE1,TLE_LINE2,SEMIMAJOR_AXIS,PERIOD,APOGEE,PERIGEE,DECAYED
51133.0,STARLINK-3356,PAYLOAD,2023-02-12 10:03:49,15.08804959,7.48e-05,53.2162,292.7007,127.482,232.624,0.00024814,3.66e-05,0.0,0 STARLINK-3356,1 51133U 22005AF  23043.41931885  .00003660  00000-0  24814-3 0  9990,2 51133  53.2162 292.7007 0000748 127.4820 232.6240 15.08804959 60570,6917.987,95.44,540.37,539.335,0.0
51133.0,STARLINK-3356,PAYLOAD,2023-02-12 16:25:21,15.0881777,6.31e-05,53.2166,291.5114,120.402,239.7034,0.00090202,0.00014088,0.0,0 STARLINK-3356,1 51133U 22005AF  23043.68428032  .00014088  00000-0  90202-3 0  9994,2 51133  53.2166 291.5114 0000631 120.4020 239.7034 15.08817770 60615,6917.948,95.439,540.25,539.377,0.0
51133.0,STARLINK-3356,PAYLOAD,2023-02-13 01:57:40,15.0884766,9.24e-05,53.2149,289.73,68.3639,291.7452,0.0022632,0.00035922,0.0,0 STARLINK-3356,1 51133U 22005AF  23044.08172449  .00035922  00000-0  22632-2 0  9998,2 51133  53.2149 289.7300 0000924  68.3639 291.7452 15.08847660 60672,6917.857,95.437,540.361,539.083,0.0
51133.0,STARLINK-3356,PAYLOAD,2023-02-13 09:54:36,15.08845139,0.0001668,53.2151,288.2409,87.1371,272.9812,0.0014035,0.00022122,0.0,0 STARLINK-3356,1 51133U 22005AF  23044.41292747  .00022122  00000-0  14035-2 0  9995,2 51133  53.2151 288.2409 0001668  87.1371 272.9812 15.08845139 60723,6917.865,95.437,540.884,538.576,0.0
51133.0,STARLINK-3356,PAYLOAD,2023-02-14 01:48:27,15.0886783,0.0001104,53.2156,285.2687,91.0299,269.082,0.0016472,0.00026044,0.0,0 STARLINK-3356,1 51133U 22005AF  23045.07532066  .00026044  00000-0  16472-2 0  9993,2 51133  53.2156 285.2687 0001104  91.0299 269.0820 15.08867830 59705,6917.795,95.436,540.424,538.897,0.0
51133.0,STARLINK-3356,PAYLOAD,2023-02-14 16:06:56,15.08860494,0.0002157,53.2146,282.5914,92.6864,267.4375,0.0018796,0.0002977,0.0,0 STARLINK-3356,1 51133U 22005AF  23045.67148311  .00029770  00000-0  18796-2 0  9995,2 51133  53.2146 282.5914 0002157  92.6864 267.4375 15.08860494 60912,6917.818,95.436,541.175,538.191,0.0
51133.0,STARLINK-3356,PAYLOAD,2023-02-14 22:28:28,15.08857703,8.43e-05,53.2156,281.4016,117.6861,242.4217,0.0014702,0.00023199,0.0,0 STARLINK-3356,1 51133U 22005AF  23045.93643927  .00023199  00000-0  14702-2 0  9999,2 51133  53.2156 281.4016 0000843 117.6861 242.4217 15.08857703 60950,6917.826,95.436,540.274,539.108,0.0
51133.0,STARLINK-3356,PAYLOAD,2023-02-15 14:22:20,15.08854495,0.0001144,53.2143,278.429,78.1074,282.0046,0.0017583,0.00027817,0.0,0 STARLINK-3356,1 51133U 22005AF  23046.59884276  .00027817  00000-0  17583-2 0  9997,2 51133  53.2143 278.4290 0001144  78.1074 282.0046 15.08854495 59939,6917.836,95.437,540.492,538.91,0.0
51133.0,STARLINK-3356,PAYLOAD,2023-02-15 15:57:43,15.08856915,0.0001096,53.2143,278.1315,79.7718,280.3398,0.0015847,0.00025034,0.0,0 STARLINK-3356,1 51133U 22005AF  23046.66508208  .00025034  00000-0  15847-2 0  9993,2 51133  53.2143 278.1315 0001096  79.7718 280.3398 15.08856915 61069,6917.829,95.436,540.452,538.935,0.0
51133.0,STARLINK-3356,PAYLOAD,2023-02-15 22:19:15,15.08858898,0.0001168,53.2149,276.9425,81.5144,278.598,0.0011893,0.000187,0.0,0 STARLINK-3356,1 51133U 22005AF  23046.93003944  .00018700  00000-0  11893-2 0  9999,2 51133  53.2149 276.9425 0001168  81.5144 278.5980 15.08858898 59983,6917.823,95.436,540.496,538.88,0.0
51133.0,STARLINK-3356,PAYLOAD,2023-02-16 14:13:06,15.08841505,0.0001598,53.2142,273.9694,76.2415,283.8755,-3.4315e-05,-8.34e-06,0.0,0 STARLINK-3356,1 51133U 22005AF  23047.59243898 -.00000834  00000-0 -34315-4 0  9993,2 51133  53.2142 273.9694 0001598  76.2415 283.8755 15.08841505 60089,6917.876,95.437,540.846,538.635,0.0
51133.0,STARLINK-3356,PAYLOAD,2023-02-16 15:48:29,15.08844848,0.000178,53.2153,273.6727,79.4955,280.6237,9.5922e-05,1.239e-05,0.0,0 STARLINK-3356,1 51133U 22005AF  23047.65867894  .00001239  00000-0  95922-4 0  9997,2 51133  53.2153 273.6727 0001780  79.4955 280.6237 15.08844848 60096,6917.866,95.437,540.962,538.499,0.0
51133.0,STARLINK-3356,PAYLOAD,2023-02-17 07:42:21,15.08831755,0.0001265,53.2133,270.6981,78.0531,282.0603,-9.4786e-05,-1.796e-05,0.0,0 STARLINK-3356,1 51133U 22005AF  23048.32108440 -.00001796  00000-0 -94786-4 0  9994,2 51133  53.2133 270.6981 0001265  78.0531 282.0603 15.08831755 61318,6917.906,95.438,540.646,538.895,0.0
51133.0,STARLINK-3356,PAYLOAD,2023-02-17 20:25:27,15.08824253,0.0001177,53.2133,268.3199,81.7242,278.3883,-1.3183e-05,-4.98e-06,0.0,0 STARLINK-3356,1 51133U 22005AF  23048.85101298 -.00000498  00000-0 -13183-4 0  9996,2 51133  53.2133 268.3199 0001177  81.7242 278.3883 15.08824253 60272,6917.929,95.439,540.608,538.979,0.0
51133.0,STARLINK-3356,PAYLOAD,2023-02-18 07:33:08,15.08840575,0.0001319,53.2153,266.2369,81.2237,278.8905,4.4145e-06,-2.18e-06,0.0,0 STARLINK-3356,1 51133U 22005AF  23049.31468668 -.00000218  00000-0  44145-5 0  9997,2 51133  53.2153 266.2369 0001319  81.2237 278.8905 15.08840575 61464,6917.879,95.438,540.656,538.831,0.0
51133.0,STARLINK-3356,PAYLOAD,2023-02-18 13:54:41,15.08835279,0.0001282,53.2146,265.0472,79.266,280.8476,0.00040213,6.117e-05,0.0,0 STARLINK-3356,1 51133U 22005AF  23049.57965093  .00006117  00000-0  40213-3 0  9992,2 51133  53.2146 265.0472 0001282  79.2660 280.8476 15.08835279 60385,6917.895,95.438,540.647,538.873,0.0
51133.0,STARLINK-3356,PAYLOAD,2023-02-19 13:45:28,15.08841714,0.000136,53.2156,260.5872,80.7879,279.3267,0.00023099,3.39e-05,0.0,0 STARLINK-3356,1 51133U 22005AF  23050.57324770  .00003390  00000-0  23099-3 0  9998,2 51133  53.2156 260.5872 0001360  80.7879 279.3267 15.08841714 60535,6917.875,95.437,540.681,538.799,0.0
51133.0,STARLINK-3356,PAYLOAD,2023-02-19 23:17:47,15.0884716,0.0001226,53.2139,258.8014,85.9649,274.1483,0.00015943,2.251e-05,0.0,0 STARLINK-3356,1 51133U 22005AF  23050.97068297  .00002251  00000-0  15943-3 0  9995,2 51133  53.2139 258.8014 0001226  85.9649 274.1483 15.08847160 61712,6917.859,95.437,540.572,538.875,0.0
51133.0,STARLINK-3356,PAYLOAD,2023-02-20 07:14:42,15.08844592,0.0001216,53.2132,257.3145,85.0037,275.1093,8.1292e-05,1.006e-05,0.0,0 STARLINK-3356,1 51133U 22005AF  23051.30188376  .00001006  00000-0  81292-4 0  9992,2 51133  53.2132 257.3145 0001216  85.0037 275.1093 15.08844592 60640,6917.866,95.437,540.573,538.89,0.0
51133.0,STARLINK-3356,PAYLOAD,2023-02-21 00:43:56,15.08850786,0.0001204,53.215,254.0434,81.0102,279.1026,9.2841e-05,1.19e-05,0.0,0 STARLINK-3356,1 51133U 22005AF  23052.03051782  .00001190  00000-0  92841-4 0  9999,2 51133  53.2150 254.0434 0001204  81.0102 279.1026 15.08850786 61879,6917.847,95.437,540.545,538.88,0.0
51133.0,STARLINK-3356,PAYLOAD,2023-02-21 13:27:02,15.08839939,0.0001172,53.2152,251.6646,88.2361,271.8765,5.0747e-05,5.2e-06,0.0,0 STARLINK-3356,1 51133U 22005AF  23052.56044423  .00000520  00000-0  50747-4 0  9996,2 51133  53.2152 251.6646 0001172  88.2361 271.8765 15.08839939 61954,6917.881,95.438,540.556,538.935,0.0
51133.0,STARLINK-3356,PAYLOAD,2023-02-21 19:48:34,15.08843835,0.0001173,53.2138,250.4749,87.3066,272.806,9.0916e-05,1.16e-05,0.0,0 STARLINK-3356,1 51133U 22005AF  23052.82540043  .00001160  00000-0  90916-4 0  9997,2 51133  53.2138 250.4749 0001173  87.3066 272.8060 15.08843835 60871,6917.869,95.437,540.545,538.922,0.0
51133.0,STARLINK-3356,PAYLOAD,2023-02-21 22:59:20,15.08847326,0.0001144,53.2141,249.8799,85.3064,274.8059,0.00010908,1.449e-05,0.0,0 STARLINK-3356,1 51133U 22005AF  23052.95787859  .00001449  00000-0  10908-3 0  9991,2 51133  53.2141 249.8799 0001144  85.3064 274.8059 15.08847326 62013,6917.858,95.437,540.514,538.932,0.0
51133.0,STARLINK-3356,PAYLOAD,2023-02-22 11:42:26,15.08835704,0.0001199,53.2135,247.5004,87.9684,272.1446,1.1054e-05,-1.12e-06,0.0,0 STARLINK-3356,1 51133U 22005AF  23053.48780494 -.00000112  00000-0  11054-4 0  9999,2 51133  53.2135 247.5004 0001199  87.9684 272.1446 15.08835704 62092,6917.894,95.438,540.588,538.929,0.0
51133.0,STARLINK-3356,PAYLOAD,2023-02-22 13:17:49,15.08833145,0.0001176,53.2132,247.2027,88.216,271.8967,-2.1989e-05,-6.38e-06,0.0,0 STARLINK-3356,1 51133U 22005AF  23053.55404630 -.00000638  00000-0 -21989-4 0  9994,2 51133  53.2132 247.2027 0001176  88.2160 271.8967 15.08833145 60986,6917.901,95.438,540.58,538.953,0.0
51133.0,STARLINK-3356,PAYLOAD,2023-02-23 13:08:36,15.08837874,0.0001045,53.2139,242.7425,94.7695,265.3416,9.8263e-05,1.276e-05,0.0,0 STARLINK-3356,1 51133U 22005AF  23054.54764530  .00001276  00000-0  98263-4 0  9998,2 51133  53.2139 242.7425 0001045  94.7695 265.3416 15.08837874 62257,6917.887,95.438,540.475,539.029,0.0
51133.0,STARLINK-3356,PAYLOAD,2023-02-23 21:05:31,15.08847297,0.0001106,53.2145,241.256,93.111,267.0008,0.00018868,2.717e-05,0.0,0 STARLINK-3356,1 51133U 22005AF  23054.87884131  .00002717  00000-0  18868-3 0  9997,2 51133  53.2145 241.2560 0001106  93.1110 267.0008 15.08847297 61188,6917.858,95.437,540.488,538.958,0.0
51133.0,STARLINK-3356,PAYLOAD,2023-02-24 12:59:24,15.08831996,0.0001206,53.214,238.2814,98.6699,261.443,3.8026e-05,3.17e-06,0.0,0 STARLINK-3356,1 51133U 22005AF  23055.54125001  .00000317  00000-0  38026-4 0  9999,2 51133  53.2140 238.2814 0001206  98.6699 261.4430 15.08831996 61281,6917.905,95.438,540.604,538.936,0.0
51133.0,STARLINK-3356,PAYLOAD,2023-02-24 20:56:19,15.08837853,0.000113,53.214,236.7946,102.1912,257.9207,0.00010224,1.34e-05,0.0,0 STARLINK-3356,1 51133U 22005AF  23055.87244777  .00001340  00000-0  10224-3 0  9993,2 51133  53.2140 236.7946 0001130 102.1912 257.9207 15.08837853 62455,6917.887,95.438,540.534,538.97,0.0
51133.0,STARLINK-3356,PAYLOAD,2023-02-25 14:25:34,15.08837212,0.0001135,53.2149,233.5241,99.4376,260.6744,4.3633e-05,4.07e-06,0.0,0 STARLINK-3356,1 51133U 22005AF  23056.60108929  .00000407  00000-0  43633-4 0  9997,2 51133  53.2149 233.5241 0001135  99.4376 260.6744 15.08837212 61448,6917.889,95.438,540.539,538.969,0.0
